GLOBALSTAR M075         
1 37192U 10054E   25257.31553042 -.00000083  00000+0  11658-3 0  9991
2 37192  51.9932 270.1632 0000310  95.6778 282.4924 12.62267674687106
GLOBALSTAR M073         
1 37193U 10054F   25257.26882138 -.00000091  00000+0  71521-4 0  9992
2 37193  52.0053 184.1904 0000597  81.3826  84.1673 12.62262512689085
GLOBALSTAR M083         
1 37739U 11033A   25257.12345590 -.00000104  00000+0 -20517-5 0  9993
2 37739  51.9848 133.2430 0000872  76.0986  88.5793 12.62275601658084
GLOBALSTAR M088         
1 37740U 11033B   25257.17727876 -.00000109  00000+0 -29515-4 0  9992
2 37740  52.0230  38.8343 0000740  87.8614  81.2243 12.62267819653636
GLOBALSTAR M091         
1 37741U 11033C   25257.23468471 -.00000096  00000+0  41949-4 0  9992
2 37741  52.0028   2.0327 0000818  89.6133 281.8953 12.62270065654431
GLOBALSTAR M085         
1 37742U 11033D   25257.14542554 -.00000089  00000+0  84008-4 0  9993
2 37742  52.0139 313.3596 0000644  92.0724 293.0553 12.62264638654937
GLOBALSTAR M081         
1 37743U 11033E   25257.25354231 -.00000088  00000+0  89947-4 0  9995
2 37743  51.9974 315.7820 0000643 112.1345 283.6601 12.62268101655097
GLOBALSTAR M089         
1 37744U 11033F   25257.28803336 -.00000080  00000+0  13348-3 0  9997
2 37744  51.9915 269.8863 0000196 147.5717 225.8837 12.62266643655949
